{"fetched_at":"2026-03-30T13:17:50Z","count":15418,"tles":[{"name":"STARLINK-1762","line1":"1 46342U 20062T   26087.93824350  .00051842  00000+0  17145-2 0  9995","line2":"2 46342  53.1588 281.5567 0000688  50.5267 309.5795 15.30868611307346","category":"Starlink"}]}